{"type":"FeatureCollection","features":[{"type":"Feature","geometry":{"type":"Polygon","coordinates":[[[7.28094,49.50552],[7.28049,49.50574],[7.27922,49.50516],[7.27716,49.50528],[7.2754,49.50578],[7.27419,49.50577],[7.27256,49.50525],[7.27165,49.50527],[7.2696,49.50472],[7.26859,49.5041],[7.26723,49.50272],[7.26679,49.50179],[7.26728,49.50053],[7.26671,49.50012],[7.26444,49.50039],[7.26154,49.49955],[7.2556,49.49943],[7.24347,49.5044],[7.23935,49.50424],[7.23591,49.50578],[7.23464,49.50604],[7.23175,49.50588],[7.2316,49.50658],[7.23077,49.50687],[7.23023,49.50669],[7.22955,49.50722],[7.22941,49.50778],[7.22871,49.50797],[7.22617,49.50831],[7.22499,49.50871],[7.2238,49.50893],[7.22049,49.51029],[7.21853,49.51098],[7.21727,49.50719],[7.21078,49.50284],[7.2085,49.50271],[7.2061,49.50198],[7.20491,49.5015],[7.20453,49.50256],[7.20521,49.50569],[7.20548,49.50767],[7.20584,49.50951],[7.20695,49.51067],[7.20672,49.51139],[7.20479,49.51131],[7.20355,49.51182],[7.20333,49.51368],[7.20268,49.51446],[7.2035,49.51524],[7.20408,49.51627],[7.204,49.5173],[7.20374,49.51814],[7.20189,49.51955],[7.20103,49.52058],[7.20069,49.52277],[7.19844,49.52623],[7.19947,49.52867],[7.19981,49.5297],[7.20093,49.52988],[7.20074,49.53138],[7.19934,49.53265],[7.20001,49.53286],[7.20176,49.53369],[7.2023,49.5338],[7.20252,49.53424],[7.20188,49.53823],[7.19411,49.53856],[7.19206,49.53758],[7.19067,49.53821],[7.18875,49.53844],[7.18583,49.53726],[7.18412,49.53961],[7.18202,49.53974],[7.1811,49.5386],[7.17969,49.53816],[7.17912,49.53929],[7.17586,49.53895],[7.17622,49.54046],[7.17699,49.54137],[7.17686,49.54311],[7.17598,49.54347],[7.17593,49.54547],[7.17023,49.54623],[7.16895,49.54843],[7.16882,49.54994],[7.16962,49.55141],[7.17794,49.55566],[7.17831,49.55669],[7.17925,49.55702],[7.18557,49.55673],[7.19199,49.55838],[7.19792,49.56153],[7.20116,49.56516],[7.20485,49.56824],[7.2071,49.56846],[7.2098,49.5693],[7.21053,49.56872],[7.20976,49.56817],[7.21335,49.56585],[7.2244,49.56483],[7.22828,49.56559],[7.23148,49.56805],[7.23436,49.56754],[7.23796,49.56859],[7.24083,49.56897],[7.24191,49.57103],[7.24093,49.57177],[7.24078,49.57322],[7.2422,49.57388],[7.24542,49.57417],[7.24949,49.57437],[7.25258,49.57399],[7.25373,49.57538],[7.2573,49.57705],[7.25894,49.57851],[7.26029,49.58231],[7.26134,49.58318],[7.2636,49.58417],[7.26528,49.5843],[7.2687,49.58408],[7.26726,49.58211],[7.26619,49.57969],[7.26557,49.57858],[7.26279,49.57593],[7.26221,49.57466],[7.2621,49.57361],[7.26241,49.57191],[7.26376,49.57061],[7.26605,49.56935],[7.26772,49.56808],[7.26916,49.56501],[7.26748,49.56388],[7.26921,49.56223],[7.27307,49.56227],[7.27462,49.56107],[7.27486,49.56057],[7.27473,49.55992],[7.27404,49.55895],[7.27425,49.55508],[7.27331,49.55477],[7.27352,49.55208],[7.27474,49.54961],[7.27662,49.54862],[7.27561,49.5481],[7.2755,49.54515],[7.27633,49.54414],[7.27661,49.54203],[7.27647,49.53899],[7.27608,49.53785],[7.27643,49.5371],[7.27714,49.53681],[7.27977,49.53691],[7.28077,49.53679],[7.28506,49.53574],[7.28995,49.53463],[7.29439,49.53444],[7.29973,49.53439],[7.30276,49.53455],[7.30241,49.53396],[7.30066,49.53314],[7.29897,49.53138],[7.29971,49.52956],[7.30085,49.53028],[7.30279,49.52741],[7.30692,49.52614],[7.30987,49.52322],[7.30698,49.52145],[7.30783,49.51995],[7.30385,49.51876],[7.30105,49.51797],[7.29867,49.51792],[7.29882,49.51913],[7.30236,49.52055],[7.30165,49.52163],[7.29882,49.52062],[7.29711,49.52289],[7.29232,49.52158],[7.29275,49.52033],[7.29149,49.52009],[7.28951,49.5195],[7.28791,49.51858],[7.28689,49.51712],[7.28569,49.51691],[7.28762,49.51411],[7.28869,49.51321],[7.28792,49.51232],[7.28566,49.51157],[7.28459,49.5114],[7.28277,49.51051],[7.28316,49.50854],[7.28254,49.50723],[7.28094,49.50552]]]},"properties":{"ags":"10046111","name":"Freisen","kreis":"St. Wendel","pop":7875,"area":47.84,"nb":["10046113","10046114","10046117"],"t_wd_pm_pharmacy":8,"t_wd_pm_secondary_school":38,"t_wd_am_gp":7,"t_wd_am_primary_school":33,"t_wd_am_rail_station":49,"t_wd_am_supermarket":15,"t_wd_am_hospital":91,"t_wd_am_pharmacy":8,"t_wd_am_secondary_school":20,"t_wd_pm_supermarket":15,"t_wd_pm_gp":7,"t_su_am_pharmacy":8,"t_su_am_secondary_school":65,"t_su_am_supermarket":15,"t_su_am_gp":7,"t_su_am_primary_school":50,"t_su_am_rail_station":55,"t_wd_pm_primary_school":79,"t_wd_pm_rail_station":77,"t_wd_pm_hospital":null,"t_su_am_hospital":null,"s30_wd_pm_pharmacy":0.833,"s30_wd_pm_secondary_school":0.389,"s30_wd_am_gp":0.9,"s30_wd_am_primary_school":0.435,"s30_wd_am_rail_station":0,"s30_wd_am_supermarket":0.9,"s30_wd_am_hospital":0,"s30_wd_am_pharmacy":0.899,"s30_wd_am_secondary_school":0.82,"s30_wd_pm_supermarket":0.851,"s30_wd_pm_gp":0.852,"s30_su_am_pharmacy":0.839,"s30_su_am_secondary_school":0.384,"s30_su_am_supermarket":0.849,"s30_su_am_gp":0.85,"s30_su_am_primary_school":0.327,"s30_su_am_rail_station":0,"s30_wd_pm_primary_school":0.327,"s30_wd_pm_rail_station":0,"s30_wd_pm_hospital":0,"s30_su_am_hospital":0,"s60_wd_pm_pharmacy":0.997,"s60_wd_pm_secondary_school":0.929,"s60_wd_am_gp":0.999,"s60_wd_am_primary_school":0.997,"s60_wd_am_rail_station":0.911,"s60_wd_am_supermarket":0.999,"s60_wd_am_hospital":0,"s60_wd_am_pharmacy":0.999,"s60_wd_am_secondary_school":0.997,"s60_wd_pm_supermarket":0.997,"s60_wd_pm_gp":0.93,"s60_su_am_pharmacy":0.998,"s60_su_am_secondary_school":0.436,"s60_su_am_supermarket":0.998,"s60_su_am_gp":0.998,"s60_su_am_primary_school":0.811,"s60_su_am_rail_station":0.561,"s60_wd_pm_primary_school":0.436,"s60_wd_pm_rail_station":0.067,"s60_wd_pm_hospital":0,"s60_su_am_hospital":0,"r_wd_pm_pharmacy":3.714,"r_wd_pm_secondary_school":4.833,"r_wd_am_gp":4,"r_wd_am_primary_school":4.125,"r_wd_am_rail_station":3.882,"r_wd_am_supermarket":3.75,"r_wd_am_hospital":3.64,"r_wd_am_pharmacy":3.889,"r_wd_am_secondary_school":2.857,"r_wd_pm_supermarket":4.571,"r_wd_pm_gp":4,"r_su_am_pharmacy":4.667,"r_su_am_secondary_school":5.417,"r_su_am_supermarket":4.6,"r_su_am_gp":4,"r_su_am_primary_school":6,"r_su_am_rail_station":6.125,"r_wd_pm_primary_school":8.778,"r_wd_pm_rail_station":6.417,"r_wd_pm_hospital":null,"r_su_am_hospital":null,"c_gp":3,"c_hospital":25,"c_pharmacy":3,"c_primary_school":6,"c_rail_station":12,"c_secondary_school":7,"c_supermarket":4,"p30_wd_pm":2437,"p45_wd_pm":2782,"p60_wd_pm":4544,"p30_wd_am":3413,"p45_wd_am":6432,"p60_wd_am":11921,"p30_su_am":2426,"p45_su_am":3350,"p60_su_am":6244,"pc30":97505,"pc45":170627,"pc60":183533}},{"type":"Feature","geometry":{"type":"Polygon","coordinates":[[[7.08221,49.50148],[7.07608,49.49885],[7.07133,49.49786],[7.06822,49.49784],[7.06772,49.49683],[7.06871,49.4948],[7.07171,49.49316],[7.07493,49.49241],[7.07777,49.49136],[7.0803,49.48929],[7.08299,49.48649],[7.08624,49.48225],[7.089,49.48074],[7.08647,49.47883],[7.08665,49.47564],[7.0864,49.4711],[7.08771,49.4711],[7.0873,49.46741],[7.08894,49.46399],[7.09151,49.46077],[7.09303,49.46002],[7.09699,49.46192],[7.09798,49.46102],[7.10455,49.46111],[7.10556,49.45907],[7.10984,49.45995],[7.11196,49.45858],[7.11012,49.45841],[7.11014,49.45638],[7.10304,49.45629],[7.09833,49.45351],[7.09681,49.45336],[7.09684,49.45174],[7.0951,49.45215],[7.09427,49.4517],[7.09352,49.44744],[7.09402,49.44525],[7.09435,49.44146],[7.0962,49.43801],[7.0977,49.4371],[7.10001,49.43664],[7.10199,49.4347],[7.10254,49.43271],[7.1003,49.43246],[7.10065,49.42979],[7.10028,49.42759],[7.10033,49.42494],[7.10062,49.42245],[7.10118,49.42001],[7.09902,49.42126],[7.09409,49.42185],[7.0916,49.41937],[7.0918,49.41713],[7.0919,49.41515],[7.08992,49.41468],[7.08877,49.41431],[7.08662,49.4127],[7.08393,49.41277],[7.08387,49.41142],[7.08147,49.41062],[7.07436,49.41139],[7.06978,49.41174],[7.06035,49.4092],[7.05687,49.41207],[7.05663,49.41583],[7.05466,49.4163],[7.05277,49.4193],[7.05128,49.42131],[7.04894,49.42314],[7.04746,49.42655],[7.04436,49.42592],[7.04108,49.42428],[7.04097,49.42222],[7.0385,49.42318],[7.03241,49.4222],[7.02946,49.42283],[7.02938,49.42362],[7.0243,49.42401],[7.02238,49.42631],[7.01932,49.42618],[7.0176,49.42734],[7.01686,49.42893],[7.01772,49.4308],[7.01543,49.43145],[7.01528,49.4303],[7.01,49.43102],[7.01015,49.43323],[7.00168,49.43453],[6.99781,49.43418],[6.99728,49.43501],[6.99576,49.43464],[6.99512,49.43542],[6.99728,49.43741],[6.99435,49.43779],[6.99729,49.43843],[7.00194,49.44448],[7.00456,49.44392],[7.00836,49.44841],[7.01223,49.44922],[7.02132,49.44891],[7.02638,49.45004],[7.02471,49.45142],[7.02444,49.45415],[7.02614,49.45587],[7.02828,49.45715],[7.0292,49.45906],[7.03212,49.46173],[7.03428,49.46255],[7.03651,49.46249],[7.03709,49.46418],[7.04311,49.46663],[7.04602,49.46587],[7.04473,49.46888],[7.04247,49.47147],[7.04754,49.47248],[7.04605,49.47454],[7.04875,49.47846],[7.05067,49.4798],[7.05096,49.48078],[7.04988,49.48099],[7.05057,49.48333],[7.05181,49.48471],[7.0539,49.48504],[7.0573,49.48753],[7.0537,49.48937],[7.05505,49.49057],[7.05686,49.49119],[7.05967,49.49103],[7.062,49.49048],[7.06278,49.49259],[7.06034,49.49425],[7.06102,49.49461],[7.06656,49.49612],[7.06564,49.49753],[7.07508,49.50361],[7.07805,49.50202],[7.08093,49.50366],[7.08221,49.50148]]]},"properties":{"ags":"10046112","name":"Marpingen","kreis":"St. Wendel","pop":10244,"area":39.83,"nb":["10046116","10046117","10046118"],"t_wd_pm_pharmacy":8,"t_wd_pm_secondary_school":35,"t_wd_am_gp":29,"t_wd_am_primary_school":22,"t_wd_am_rail_station":48,"t_wd_am_supermarket":20,"t_wd_am_hospital":91,"t_wd_am_pharmacy":8,"t_wd_am_secondary_school":23,"t_wd_pm_supermarket":20,"t_wd_pm_gp":45,"t_su_am_pharmacy":8,"t_su_am_secondary_school":30,"t_su_am_supermarket":20,"t_su_am_gp":48,"t_su_am_primary_school":28,"t_su_am_rail_station":50,"t_wd_pm_primary_school":39,"t_wd_pm_rail_station":74,"t_wd_pm_hospital":null,"t_su_am_hospital":null,"s30_wd_pm_pharmacy":0.885,"s30_wd_pm_secondary_school":0.431,"s30_wd_am_gp":0.592,"s30_wd_am_primary_school":0.784,"s30_wd_am_rail_station":0.026,"s30_wd_am_supermarket":0.994,"s30_wd_am_hospital":0,"s30_wd_am_pharmacy":0.985,"s30_wd_am_secondary_school":0.71,"s30_wd_pm_supermarket":0.638,"s30_wd_pm_gp":0.257,"s30_su_am_pharmacy":0.885,"s30_su_am_secondary_school":0.52,"s30_su_am_supermarket":0.638,"s30_su_am_gp":0.257,"s30_su_am_primary_school":0.623,"s30_su_am_rail_station":0,"s30_wd_pm_primary_school":0.432,"s30_wd_pm_rail_station":0,"s30_wd_pm_hospital":0,"s30_su_am_hospital":0,"s60_wd_pm_pharmacy":0.9,"s60_wd_pm_secondary_school":0.899,"s60_wd_am_gp":1.0,"s60_wd_am_primary_school":1.0,"s60_wd_am_rail_station":0.846,"s60_wd_am_supermarket":1.0,"s60_wd_am_hospital":0,"s60_wd_am_pharmacy":1.0,"s60_wd_am_secondary_school":0.999,"s60_wd_pm_supermarket":0.9,"s60_wd_pm_gp":0.899,"s60_su_am_pharmacy":0.9,"s60_su_am_secondary_school":0.899,"s60_su_am_supermarket":0.899,"s60_su_am_gp":0.885,"s60_su_am_primary_school":0.899,"s60_su_am_rail_station":0.641,"s60_wd_pm_primary_school":0.885,"s60_wd_pm_rail_station":0.21,"s60_wd_pm_hospital":0,"s60_su_am_hospital":0,"r_wd_pm_pharmacy":3,"r_wd_pm_secondary_school":4.5,"r_wd_am_gp":6.429,"r_wd_am_primary_school":3.429,"r_wd_am_rail_station":4.429,"r_wd_am_supermarket":3.5,"r_wd_am_hospital":3.826,"r_wd_am_pharmacy":3,"r_wd_am_secondary_school":3.1,"r_wd_pm_supermarket":4.333,"r_wd_pm_gp":7,"r_su_am_pharmacy":3,"r_su_am_secondary_school":4,"r_su_am_supermarket":4.5,"r_su_am_gp":7.429,"r_su_am_primary_school":4.286,"r_su_am_rail_station":5.75,"r_wd_pm_primary_school":5.571,"r_wd_pm_rail_station":6.727,"r_wd_pm_hospital":null,"r_su_am_hospital":null,"c_gp":5,"c_hospital":23,"c_pharmacy":2,"c_primary_school":5,"c_rail_station":11,"c_secondary_school":5,"c_supermarket":3,"p30_wd_pm":3644,"p45_wd_pm":6991,"p60_wd_pm":13618,"p30_wd_am":5315,"p45_wd_am":14297,"p60_wd_am":31277,"p30_su_am":3508,"p45_su_am":6430,"p60_su_am":11437,"pc30":147586,"pc45":177703,"pc60":183761}},{"type":"Feature","geometry":{"type":"Polygon","coordinates":[[[7.20548,49.50767],[7.20277,49.50659],[7.20105,49.50465],[7.19941,49.50428],[7.19779,49.50226],[7.19492,49.50045],[7.18641,49.49989],[7.18315,49.49926],[7.18275,49.50049],[7.17956,49.49888],[7.17586,49.49398],[7.17489,49.49412],[7.16962,49.4926],[7.16781,49.49177],[7.16515,49.49094],[7.1652,49.48968],[7.16479,49.48917],[7.16498,49.4886],[7.1659,49.48829],[7.16508,49.48775],[7.16293,49.48702],[7.16174,49.4879],[7.16069,49.48671],[7.15779,49.48641],[7.15537,49.48692],[7.15359,49.48531],[7.15076,49.48603],[7.14965,49.49312],[7.14755,49.49516],[7.14871,49.49834],[7.14587,49.49968],[7.1441,49.50185],[7.14355,49.50314],[7.14235,49.50399],[7.14263,49.5073],[7.13926,49.50613],[7.13137,49.50693],[7.12886,49.50964],[7.1295,49.51167],[7.12906,49.51281],[7.12654,49.51473],[7.127,49.5158],[7.12526,49.51597],[7.12347,49.51644],[7.1239,49.5181],[7.12357,49.51936],[7.12171,49.52157],[7.12186,49.52246],[7.12451,49.52284],[7.12236,49.52776],[7.12377,49.52809],[7.12557,49.52741],[7.12515,49.52868],[7.12368,49.52985],[7.12559,49.53069],[7.12597,49.53159],[7.12576,49.53309],[7.12798,49.53477],[7.12892,49.53652],[7.1307,49.53782],[7.13409,49.5383],[7.14066,49.54244],[7.13945,49.54334],[7.14182,49.54372],[7.14325,49.54409],[7.14438,49.54302],[7.14509,49.54115],[7.14692,49.54064],[7.15038,49.53933],[7.15127,49.53908],[7.15379,49.53893],[7.15524,49.53891],[7.15691,49.53846],[7.16472,49.5441],[7.16953,49.54552],[7.17023,49.54623],[7.17593,49.54547],[7.17598,49.54347],[7.17686,49.54311],[7.17699,49.54137],[7.17622,49.54046],[7.17586,49.53895],[7.17912,49.53929],[7.17969,49.53816],[7.1811,49.5386],[7.18202,49.53974],[7.18412,49.53961],[7.18583,49.53726],[7.18875,49.53844],[7.19067,49.53821],[7.19206,49.53758],[7.19411,49.53856],[7.20188,49.53823],[7.20252,49.53424],[7.2023,49.5338],[7.20176,49.53369],[7.20001,49.53286],[7.19934,49.53265],[7.20074,49.53138],[7.20093,49.52988],[7.19981,49.5297],[7.19947,49.52867],[7.19844,49.52623],[7.20069,49.52277],[7.20103,49.52058],[7.20189,49.51955],[7.20374,49.51814],[7.204,49.5173],[7.20408,49.51627],[7.2035,49.51524],[7.20268,49.51446],[7.20333,49.51368],[7.20355,49.51182],[7.20479,49.51131],[7.20672,49.51139],[7.20695,49.51067],[7.20584,49.50951],[7.20548,49.50767]]]},"properties":{"ags":"10046113","name":"Namborn","kreis":"St. Wendel","pop":7158,"area":26.11,"nb":["10046111","10046114","10046116","10046117"],"t_wd_pm_pharmacy":29,"t_wd_pm_secondary_school":62,"t_wd_am_gp":31,"t_wd_am_primary_school":39,"t_wd_am_rail_station":14,"t_wd_am_supermarket":27,"t_wd_am_hospital":86,"t_wd_am_pharmacy":25,"t_wd_am_secondary_school":42,"t_wd_pm_supermarket":29,"t_wd_pm_gp":35,"t_su_am_pharmacy":31,"t_su_am_secondary_school":55,"t_su_am_supermarket":30,"t_su_am_gp":37,"t_su_am_primary_school":41,"t_su_am_rail_station":14,"t_wd_pm_primary_school":51,"t_wd_pm_rail_station":14,"t_wd_pm_hospital":null,"t_su_am_hospital":null,"s30_wd_pm_pharmacy":0.505,"s30_wd_pm_secondary_school":0,"s30_wd_am_gp":0.449,"s30_wd_am_primary_school":0.294,"s30_wd_am_rail_station":0.713,"s30_wd_am_supermarket":0.736,"s30_wd_am_hospital":0,"s30_wd_am_pharmacy":0.767,"s30_wd_am_secondary_school":0,"s30_wd_pm_supermarket":0.673,"s30_wd_pm_gp":0.424,"s30_su_am_pharmacy":0.385,"s30_su_am_secondary_school":0,"s30_su_am_supermarket":0.526,"s30_su_am_gp":0.424,"s30_su_am_primary_school":0.226,"s30_su_am_rail_station":0.713,"s30_wd_pm_primary_school":0.226,"s30_wd_pm_rail_station":0.713,"s30_wd_pm_hospital":0,"s30_su_am_hospital":0,"s60_wd_pm_pharmacy":0.95,"s60_wd_pm_secondary_school":0.406,"s60_wd_am_gp":1,"s60_wd_am_primary_school":0.993,"s60_wd_am_rail_station":1,"s60_wd_am_supermarket":1,"s60_wd_am_hospital":0,"s60_wd_am_pharmacy":1,"s60_wd_am_secondary_school":0.845,"s60_wd_pm_supermarket":0.944,"s60_wd_pm_gp":0.825,"s60_su_am_pharmacy":0.858,"s60_su_am_secondary_school":0.582,"s60_su_am_supermarket":0.931,"s60_su_am_gp":0.853,"s60_su_am_primary_school":0.838,"s60_su_am_rail_station":0.853,"s60_wd_pm_primary_school":0.713,"s60_wd_pm_rail_station":0.936,"s60_wd_pm_hospital":0,"s60_su_am_hospital":0,"r_wd_pm_pharmacy":6.2,"r_wd_pm_secondary_school":6.2,"r_wd_am_gp":4.667,"r_wd_am_primary_school":5.5,"r_wd_am_rail_station":4.333,"r_wd_am_supermarket":5.6,"r_wd_am_hospital":4.286,"r_wd_am_pharmacy":5,"r_wd_am_secondary_school":3.818,"r_wd_pm_supermarket":6.75,"r_wd_pm_gp":5.333,"r_su_am_pharmacy":7,"r_su_am_secondary_school":5.714,"r_su_am_supermarket":6.667,"r_su_am_gp":6.167,"r_su_am_primary_school":6.25,"r_su_am_rail_station":4.6,"r_wd_pm_primary_school":6.625,"r_wd_pm_rail_station":4.6,"r_wd_pm_hospital":null,"r_su_am_hospital":null,"c_gp":6,"c_hospital":19,"c_pharmacy":5,"c_primary_school":8,"c_rail_station":5,"c_secondary_school":10,"c_supermarket":4,"p30_wd_pm":2908,"p45_wd_pm":7815,"p60_wd_pm":19196,"p30_wd_am":3501,"p45_wd_am":8702,"p60_wd_am":19192,"p30_su_am":2523,"p45_su_am":5995,"p60_su_am":13534,"pc30":134244,"pc45":179941,"pc60":184050}},{"type":"Feature","geometry":{"type":"Polygon","coordinates":[[[7.21053,49.56872],[7.2098,49.5693],[7.2071,49.56846],[7.20485,49.56824],[7.20116,49.56516],[7.19792,49.56153],[7.19199,49.55838],[7.18557,49.55673],[7.17925,49.55702],[7.17831,49.55669],[7.17794,49.55566],[7.16962,49.55141],[7.16882,49.54994],[7.16895,49.54843],[7.17023,49.54623],[7.16953,49.54552],[7.16472,49.5441],[7.15691,49.53846],[7.15524,49.53891],[7.15379,49.53893],[7.15127,49.53908],[7.15038,49.53933],[7.14692,49.54064],[7.14509,49.54115],[7.14438,49.54302],[7.14325,49.54409],[7.14182,49.54372],[7.14082,49.54628],[7.14006,49.54709],[7.14117,49.54803],[7.14088,49.54996],[7.13996,49.55083],[7.13694,49.55071],[7.13471,49.54836],[7.12448,49.54851],[7.1229,49.54863],[7.1229,49.54963],[7.11972,49.55091],[7.11614,49.54962],[7.11238,49.54957],[7.10832,49.54919],[7.10624,49.54847],[7.1022,49.54972],[7.10044,49.55208],[7.09466,49.5506],[7.09193,49.5505],[7.09216,49.54917],[7.0894,49.54749],[7.08652,49.54931],[7.08326,49.54835],[7.0825,49.5474],[7.08614,49.5455],[7.08807,49.54406],[7.09045,49.53952],[7.08824,49.53805],[7.08561,49.53541],[7.08274,49.53457],[7.08098,49.5336],[7.07904,49.53446],[7.07697,49.53485],[7.07434,49.53497],[7.07386,49.53626],[7.07297,49.53652],[7.07261,49.53628],[7.07113,49.53576],[7.06948,49.53533],[7.06812,49.53381],[7.0644,49.53195],[7.06275,49.52896],[7.05973,49.52597],[7.05961,49.52451],[7.05636,49.52427],[7.04976,49.52529],[7.04865,49.52489],[7.04853,49.52369],[7.04588,49.52385],[7.0455,49.52302],[7.04093,49.52372],[7.03822,49.52364],[7.03601,49.52384],[7.03494,49.52201],[7.03118,49.5226],[7.02847,49.52353],[7.02817,49.52459],[7.02695,49.52429],[7.0259,49.52471],[7.02598,49.52662],[7.02338,49.52461],[7.02182,49.52535],[7.01707,49.52409],[7.01562,49.52553],[7.0136,49.5265],[7.01517,49.52736],[7.01584,49.52854],[7.01514,49.53409],[7.01668,49.53507],[7.01595,49.5372],[7.01357,49.53791],[7.01036,49.53767],[7.00816,49.53856],[7.0076,49.54012],[7.00431,49.54136],[7.00287,49.5433],[6.99996,49.54211],[6.99683,49.54234],[6.99655,49.54422],[6.99844,49.54527],[6.99722,49.5467],[6.99726,49.54779],[6.99393,49.54944],[6.99434,49.55081],[6.99412,49.55229],[6.99279,49.55311],[6.99256,49.55562],[6.99383,49.55592],[6.99336,49.55761],[6.98956,49.55917],[6.99218,49.56238],[6.99044,49.56415],[6.99354,49.56691],[6.99429,49.56848],[6.99701,49.56905],[6.99799,49.56958],[6.99648,49.57072],[7.0003,49.57186],[7.00221,49.57212],[7.00579,49.57228],[7.00847,49.57224],[7.01335,49.56967],[7.01494,49.57048],[7.01693,49.57233],[7.01599,49.57468],[7.0149,49.57552],[7.01817,49.57691],[7.01953,49.57794],[7.02246,49.58147],[7.02028,49.58268],[7.01605,49.58385],[7.01414,49.5852],[7.01029,49.58613],[7.01126,49.58763],[7.01719,49.58578],[7.01958,49.58521],[7.02052,49.58427],[7.02164,49.58522],[7.02243,49.58568],[7.02406,49.58516],[7.02775,49.58682],[7.02907,49.58572],[7.03125,49.58592],[7.03182,49.58671],[7.03309,49.58721],[7.03518,49.58671],[7.03876,49.58763],[7.03982,49.58899],[7.04042,49.59252],[7.03983,49.59365],[7.04132,49.59398],[7.0395,49.59587],[7.03631,49.59894],[7.03971,49.60512],[7.04002,49.60613],[7.03811,49.60627],[7.03674,49.606],[7.0343,49.60567],[7.03158,49.60502],[7.03083,49.60517],[7.02924,49.60678],[7.02849,49.60709],[7.02749,49.60774],[7.02722,49.60843],[7.02284,49.60935],[7.022,49.61011],[7.01812,49.61125],[7.02032,49.6132],[7.01374,49.62307],[7.01413,49.62433],[7.01028,49.62494],[7.00708,49.6262],[7.00831,49.62948],[7.0124,49.62836],[7.0171,49.63103],[7.02002,49.63293],[7.0263,49.63848],[7.02798,49.63944],[7.03095,49.63833],[7.04155,49.63482],[7.05058,49.63214],[7.0521,49.63204],[7.05601,49.6315],[7.05908,49.63048],[7.06285,49.62778],[7.06827,49.62377],[7.07219,49.61805],[7.07288,49.61731],[7.07527,49.61535],[7.07742,49.61351],[7.07963,49.61208],[7.07979,49.61133],[7.0831,49.60658],[7.08472,49.605],[7.08367,49.60325],[7.08697,49.60224],[7.08686,49.60124],[7.08767,49.59958],[7.08898,49.59942],[7.09181,49.60228],[7.09299,49.60359],[7.0957,49.60336],[7.09728,49.60269],[7.09915,49.60272],[7.10064,49.60243],[7.09971,49.60479],[7.10016,49.60568],[7.10198,49.60557],[7.10328,49.60442],[7.10346,49.60225],[7.10459,49.60115],[7.1048,49.59903],[7.10807,49.59876],[7.10906,49.59845],[7.11024,49.5986],[7.11202,49.59714],[7.11436,49.59767],[7.1184,49.59598],[7.12473,49.59562],[7.12992,49.59589],[7.13287,49.59621],[7.13596,49.5967],[7.14005,49.59768],[7.14167,49.59828],[7.1437,49.59934],[7.14475,49.60016],[7.14501,49.60161],[7.1461,49.60294],[7.14793,49.60353],[7.14931,49.60368],[7.15172,49.60371],[7.15434,49.60322],[7.15553,49.60272],[7.15868,49.60039],[7.16242,49.59854],[7.16512,49.59858],[7.16827,49.59763],[7.1696,49.59754],[7.17084,49.59777],[7.17371,49.59907],[7.17499,49.5978],[7.17509,49.59463],[7.17359,49.5912],[7.17284,49.58797],[7.1711,49.58788],[7.17345,49.58508],[7.17539,49.58514],[7.18214,49.58266],[7.18346,49.58078],[7.18427,49.58036],[7.18507,49.58022],[7.18675,49.57972],[7.18711,49.57889],[7.18716,49.57598],[7.18837,49.57566],[7.19031,49.5771],[7.19298,49.57669],[7.19544,49.57677],[7.19678,49.57784],[7.19991,49.57715],[7.2061,49.57754],[7.21,49.57715],[7.21079,49.57632],[7.21401,49.57446],[7.21277,49.57275],[7.21208,49.57111],[7.21102,49.56907],[7.21053,49.56872]]]},"properties":{"ags":"10046114","name":"Nohfelden","kreis":"St. Wendel","pop":10047,"area":100.78,"nb":["10046111","10046113","10046115","10046116","10046118"],"t_wd_pm_pharmacy":53,"t_wd_pm_secondary_school":63,"t_wd_am_gp":24,"t_wd_am_primary_school":28,"t_wd_am_rail_station":29,"t_wd_am_supermarket":24,"t_wd_am_hospital":91,"t_wd_am_pharmacy":27,"t_wd_am_secondary_school":32,"t_wd_pm_supermarket":47,"t_wd_pm_gp":42,"t_su_am_pharmacy":46,"t_su_am_secondary_school":64,"t_su_am_supermarket":33,"t_su_am_gp":35,"t_su_am_primary_school":52,"t_su_am_rail_station":64,"t_wd_pm_primary_school":48,"t_wd_pm_rail_station":58,"t_wd_pm_hospital":null,"t_su_am_hospital":null,"s30_wd_pm_pharmacy":0.183,"s30_wd_pm_secondary_school":0.086,"s30_wd_am_gp":0.756,"s30_wd_am_primary_school":0.551,"s30_wd_am_rail_station":0.539,"s30_wd_am_supermarket":0.649,"s30_wd_am_hospital":0,"s30_wd_am_pharmacy":0.509,"s30_wd_am_secondary_school":0.492,"s30_wd_pm_supermarket":0.469,"s30_wd_pm_gp":0.364,"s30_su_am_pharmacy":0.207,"s30_su_am_secondary_school":0.086,"s30_su_am_supermarket":0.493,"s30_su_am_gp":0.35,"s30_su_am_primary_school":0.363,"s30_su_am_rail_station":0.242,"s30_wd_pm_primary_school":0.387,"s30_wd_pm_rail_station":0.242,"s30_wd_pm_hospital":0,"s30_su_am_hospital":0,"s60_wd_pm_pharmacy":0.87,"s60_wd_pm_secondary_school":0.458,"s60_wd_am_gp":1,"s60_wd_am_primary_school":1,"s60_wd_am_rail_station":1,"s60_wd_am_supermarket":1,"s60_wd_am_hospital":0,"s60_wd_am_pharmacy":1,"s60_wd_am_secondary_school":0.998,"s60_wd_pm_supermarket":0.885,"s60_wd_pm_gp":0.866,"s60_su_am_pharmacy":0.577,"s60_su_am_secondary_school":0.329,"s60_su_am_supermarket":0.982,"s60_su_am_gp":0.746,"s60_su_am_primary_school":0.774,"s60_su_am_rail_station":0.426,"s60_wd_pm_primary_school":0.751,"s60_wd_pm_rail_station":0.651,"s60_wd_pm_hospital":0,"s60_su_am_hospital":0,"r_wd_pm_pharmacy":7.571,"r_wd_pm_secondary_school":6.444,"r_wd_am_gp":4,"r_wd_am_primary_school":3.625,"r_wd_am_rail_station":3.571,"r_wd_am_supermarket":4.5,"r_wd_am_hospital":3.143,"r_wd_am_pharmacy":4,"r_wd_am_secondary_school":3.091,"r_wd_pm_supermarket":6.714,"r_wd_pm_gp":7.857,"r_su_am_pharmacy":6.6,"r_su_am_secondary_school":6.4,"r_su_am_supermarket":5.875,"r_su_am_gp":7.333,"r_su_am_primary_school":6,"r_su_am_rail_station":6.3,"r_wd_pm_primary_school":6.5,"r_wd_pm_rail_station":6.571,"r_wd_pm_hospital":null,"r_su_am_hospital":null,"c_gp":5,"c_hospital":30,"c_pharmacy":7,"c_primary_school":7,"c_rail_station":9,"c_secondary_school":10,"c_supermarket":5,"p30_wd_pm":1116,"p45_wd_pm":2304,"p60_wd_pm":7519,"p30_wd_am":2091,"p45_wd_am":7515,"p60_wd_am":20861,"p30_su_am":1124,"p45_su_am":2148,"p60_su_am":4262,"pc30":130485,"pc45":180585,"pc60":184247}},{"type":"Feature","geometry":{"type":"Polygon","coordinates":[[[7.00831,49.62948],[7.00708,49.6262],[7.01028,49.62494],[7.01413,49.62433],[7.01374,49.62307],[7.02032,49.6132],[7.01812,49.61125],[7.022,49.61011],[7.02284,49.60935],[7.02722,49.60843],[7.02749,49.60774],[7.02849,49.60709],[7.02924,49.60678],[7.03083,49.60517],[7.03158,49.60502],[7.0343,49.60567],[7.03674,49.606],[7.03811,49.60627],[7.04002,49.60613],[7.03971,49.60512],[7.03631,49.59894],[7.0395,49.59587],[7.04132,49.59398],[7.03983,49.59365],[7.04042,49.59252],[7.03982,49.58899],[7.03876,49.58763],[7.03518,49.58671],[7.03309,49.58721],[7.03182,49.58671],[7.03125,49.58592],[7.02907,49.58572],[7.02775,49.58682],[7.02406,49.58516],[7.02243,49.58568],[7.02164,49.58522],[7.02052,49.58427],[7.01958,49.58521],[7.01719,49.58578],[7.01126,49.58763],[7.01029,49.58613],[7.01414,49.5852],[7.01605,49.58385],[7.02028,49.58268],[7.02246,49.58147],[7.01953,49.57794],[7.01817,49.57691],[7.0149,49.57552],[7.01599,49.57468],[7.01693,49.57233],[7.01494,49.57048],[7.01335,49.56967],[7.00847,49.57224],[7.00579,49.57228],[7.00221,49.57212],[7.0003,49.57186],[6.99648,49.57072],[6.99799,49.56958],[6.99701,49.56905],[6.99429,49.56848],[6.99354,49.56691],[6.99044,49.56415],[6.99218,49.56238],[6.98956,49.55917],[6.99336,49.55761],[6.99383,49.55592],[6.99256,49.55562],[6.99279,49.55311],[6.99412,49.55229],[6.99434,49.55081],[6.99393,49.54944],[6.99726,49.54779],[6.99722,49.5467],[6.99844,49.54527],[6.99655,49.54422],[6.99683,49.54234],[6.99996,49.54211],[7.00287,49.5433],[7.00431,49.54136],[7.0076,49.54012],[7.00816,49.53856],[7.01036,49.53767],[7.01357,49.53791],[7.01595,49.5372],[7.01668,49.53507],[7.01514,49.53409],[7.01584,49.52854],[7.01517,49.52736],[7.0136,49.5265],[7.01562,49.52553],[7.01445,49.52414],[7.01001,49.52217],[7.00692,49.52115],[7.00204,49.52074],[6.9997,49.51921],[6.99676,49.51929],[6.9934,49.51759],[6.99265,49.51514],[6.99037,49.5153],[6.98832,49.51427],[6.98752,49.51294],[6.98576,49.51281],[6.98482,49.51335],[6.98283,49.51184],[6.97962,49.51135],[6.97763,49.5118],[6.97702,49.51031],[6.97393,49.51006],[6.97171,49.51046],[6.96912,49.51247],[6.96757,49.51143],[6.96261,49.51027],[6.96133,49.50933],[6.95976,49.51071],[6.95688,49.51097],[6.95545,49.51184],[6.9563,49.51336],[6.95623,49.5146],[6.95645,49.5171],[6.95468,49.52008],[6.9564,49.52255],[6.95621,49.52354],[6.95637,49.52507],[6.95527,49.52663],[6.95459,49.52909],[6.95368,49.5304],[6.95457,49.53074],[6.95297,49.53308],[6.95496,49.53366],[6.95714,49.53592],[6.95768,49.53817],[6.95806,49.5406],[6.95905,49.54089],[6.95901,49.54239],[6.95812,49.5438],[6.95815,49.54573],[6.95696,49.5474],[6.95683,49.55116],[6.95624,49.55259],[6.95448,49.5536],[6.95767,49.55529],[6.95743,49.55619],[6.95826,49.55675],[6.96073,49.557],[6.96161,49.55895],[6.96302,49.55936],[6.96241,49.56085],[6.96121,49.56207],[6.9595,49.56246],[6.95694,49.56199],[6.95668,49.5655],[6.95512,49.56569],[6.95274,49.56531],[6.95002,49.56574],[6.94804,49.56623],[6.95131,49.56898],[6.95296,49.57046],[6.95266,49.57108],[6.95205,49.57173],[6.94988,49.57163],[6.94979,49.57386],[6.95466,49.57767],[6.95577,49.57978],[6.9559,49.58137],[6.95462,49.58204],[6.95214,49.58285],[6.9555,49.58459],[6.95844,49.58598],[6.95764,49.58678],[6.95567,49.58811],[6.95585,49.58957],[6.95508,49.59104],[6.95524,49.59276],[6.95632,49.59442],[6.95666,49.59775],[6.9549,49.59623],[6.95345,49.59463],[6.94359,49.59799],[6.94058,49.59848],[6.9379,49.59783],[6.93627,49.59814],[6.93463,49.59941],[6.93324,49.59947],[6.93049,49.59742],[6.92377,49.59706],[6.92353,49.59598],[6.9207,49.59521],[6.91819,49.59444],[6.91438,49.59516],[6.90987,49.59436],[6.90654,49.59257],[6.90555,49.59247],[6.90502,49.59183],[6.90551,49.59062],[6.89809,49.59627],[6.89505,49.59756],[6.89432,49.59983],[6.89409,49.60091],[6.89486,49.60179],[6.89571,49.60371],[6.89512,49.605],[6.89373,49.60513],[6.89256,49.60792],[6.89186,49.60878],[6.89209,49.61],[6.89215,49.61161],[6.89145,49.61342],[6.89042,49.61516],[6.89145,49.61629],[6.89309,49.61665],[6.89549,49.61582],[6.89654,49.61533],[6.89967,49.61463],[6.90221,49.61436],[6.90632,49.61414],[6.91101,49.61605],[6.91567,49.61661],[6.91838,49.61654],[6.92143,49.61666],[6.92319,49.61537],[6.92476,49.61502],[6.92579,49.61359],[6.92621,49.6122],[6.92807,49.61263],[6.92958,49.61244],[6.93102,49.61446],[6.92816,49.61529],[6.92844,49.61651],[6.92737,49.61734],[6.92769,49.61829],[6.93359,49.6167],[6.93501,49.61597],[6.93778,49.61774],[6.93683,49.6182],[6.9353,49.61919],[6.93452,49.62009],[6.93397,49.62213],[6.93406,49.623],[6.93644,49.62363],[6.93713,49.62454],[6.93683,49.62564],[6.93541,49.62692],[6.93309,49.62852],[6.93287,49.62935],[6.93333,49.63028],[6.93276,49.63103],[6.94092,49.63492],[6.94516,49.63587],[6.94861,49.63513],[6.948,49.63203],[6.94925,49.62866],[6.9494,49.62607],[6.9514,49.62512],[6.9551,49.62655],[6.95501,49.62773],[6.95769,49.62981],[6.95884,49.63078],[6.96022,49.6291],[6.96432,49.63068],[6.96681,49.63039],[6.96874,49.63199],[6.97233,49.63341],[6.9747,49.6339],[6.97508,49.63541],[6.9784,49.63589],[6.97896,49.63454],[6.97768,49.63271],[6.98077,49.63293],[6.98754,49.63363],[6.98889,49.63294],[6.98967,49.63475],[6.99153,49.63547],[6.9916,49.63457],[6.99188,49.63348],[6.9918,49.63255],[6.99113,49.63187],[6.98916,49.63063],[6.98808,49.62981],[6.98769,49.62909],[6.98775,49.62831],[6.98818,49.62757],[6.98882,49.6258],[6.98859,49.62525],[6.98671,49.62384],[6.98598,49.62302],[6.98578,49.62215],[6.98596,49.62073],[6.98837,49.62245],[6.99013,49.62331],[6.99126,49.62351],[6.99215,49.62384],[6.99286,49.62455],[6.99408,49.6263],[6.99497,49.6272],[6.99607,49.62788],[6.99808,49.62869],[6.99922,49.62932],[7.00102,49.63088],[7.00302,49.63144],[7.00521,49.63076],[7.00831,49.62948]]]},"properties":{"ags":"10046115","name":"Nonnweiler","kreis":"St. Wendel","pop":8561,"area":66.76,"nb":["10046114","10046118"],"t_wd_pm_pharmacy":24,"t_wd_pm_secondary_school":75,"t_wd_am_gp":38,"t_wd_am_primary_school":35,"t_wd_am_rail_station":54,"t_wd_am_supermarket":16,"t_wd_am_hospital":91,"t_wd_am_pharmacy":21,"t_wd_am_secondary_school":50,"t_wd_pm_supermarket":16,"t_wd_pm_gp":55,"t_su_am_pharmacy":24,"t_su_am_secondary_school":75,"t_su_am_supermarket":16,"t_su_am_gp":64,"t_su_am_primary_school":61,"t_su_am_rail_station":119,"t_wd_pm_primary_school":55,"t_wd_pm_rail_station":74,"t_wd_pm_hospital":null,"t_su_am_hospital":null,"s30_wd_pm_pharmacy":0.572,"s30_wd_pm_secondary_school":0,"s30_wd_am_gp":0.382,"s30_wd_am_primary_school":0.394,"s30_wd_am_rail_station":0,"s30_wd_am_supermarket":0.903,"s30_wd_am_hospital":0,"s30_wd_am_pharmacy":0.752,"s30_wd_am_secondary_school":0,"s30_wd_pm_supermarket":0.627,"s30_wd_pm_gp":0.328,"s30_su_am_pharmacy":0.572,"s30_su_am_secondary_school":0,"s30_su_am_supermarket":0.627,"s30_su_am_gp":0.328,"s30_su_am_primary_school":0.244,"s30_su_am_rail_station":0,"s30_wd_pm_primary_school":0.244,"s30_wd_pm_rail_station":0,"s30_wd_pm_hospital":0,"s30_su_am_hospital":0,"s60_wd_pm_pharmacy":0.714,"s60_wd_pm_secondary_school":0.412,"s60_wd_am_gp":1,"s60_wd_am_primary_school":1,"s60_wd_am_rail_station":0.784,"s60_wd_am_supermarket":1,"s60_wd_am_hospital":0,"s60_wd_am_pharmacy":1,"s60_wd_am_secondary_school":0.887,"s60_wd_pm_supermarket":0.714,"s60_wd_pm_gp":0.714,"s60_su_am_pharmacy":0.631,"s60_su_am_secondary_school":0,"s60_su_am_supermarket":0.714,"s60_su_am_gp":0.386,"s60_su_am_primary_school":0.245,"s60_su_am_rail_station":0,"s60_wd_pm_primary_school":0.71,"s60_wd_pm_rail_station":0.412,"s60_wd_pm_hospital":0,"s60_su_am_hospital":0,"r_wd_pm_pharmacy":6.667,"r_wd_pm_secondary_school":4.833,"r_wd_am_gp":5,"r_wd_am_primary_school":3.6,"r_wd_am_rail_station":3.462,"r_wd_am_supermarket":3.875,"r_wd_am_hospital":2.333,"r_wd_am_pharmacy":5.167,"r_wd_am_secondary_school":3.714,"r_wd_pm_supermarket":4,"r_wd_pm_gp":7,"r_su_am_pharmacy":6,"r_su_am_secondary_school":5.333,"r_su_am_supermarket":4,"r_su_am_gp":6.25,"r_su_am_primary_school":8,"r_su_am_rail_station":6.611,"r_wd_pm_primary_school":7.25,"r_wd_pm_rail_station":4.353,"r_wd_pm_hospital":null,"r_su_am_hospital":null,"c_gp":6,"c_hospital":40,"c_pharmacy":4,"c_primary_school":7,"c_rail_station":16,"c_secondary_school":13,"c_supermarket":4,"p30_wd_pm":1579,"p45_wd_pm":2027,"p60_wd_pm":4234,"p30_wd_am":2611,"p45_wd_am":7745,"p60_wd_am":15537,"p30_su_am":1674,"p45_su_am":2072,"p60_su_am":3154,"pc30":116982,"pc45":175660,"pc60":183693}},{"type":"Feature","geometry":{"type":"Polygon","coordinates":[[[7.14182,49.54372],[7.13945,49.54334],[7.14066,49.54244],[7.13409,49.5383],[7.1307,49.53782],[7.12892,49.53652],[7.12798,49.53477],[7.12576,49.53309],[7.12597,49.53159],[7.12559,49.53069],[7.12368,49.52985],[7.12515,49.52868],[7.12557,49.52741],[7.12377,49.52809],[7.12236,49.52776],[7.12451,49.52284],[7.12186,49.52246],[7.12171,49.52157],[7.12357,49.51936],[7.1239,49.5181],[7.12347,49.51644],[7.12526,49.51597],[7.127,49.5158],[7.12654,49.51473],[7.12906,49.51281],[7.1295,49.51167],[7.12464,49.51086],[7.12247,49.5091],[7.12015,49.50787],[7.11824,49.50708],[7.11537,49.50668],[7.11544,49.5057],[7.11076,49.50463],[7.10843,49.5044],[7.10589,49.50518],[7.10424,49.50517],[7.09972,49.5044],[7.09465,49.50219],[7.09183,49.50173],[7.08872,49.50168],[7.08413,49.501],[7.08221,49.50148],[7.08093,49.50366],[7.07805,49.50202],[7.07508,49.50361],[7.06564,49.49753],[7.06656,49.49612],[7.06102,49.49461],[7.06034,49.49425],[7.05812,49.49597],[7.0601,49.49805],[7.05701,49.49846],[7.05647,49.50014],[7.05868,49.50138],[7.0599,49.50302],[7.05843,49.50314],[7.05419,49.50478],[7.05322,49.50761],[7.05475,49.50774],[7.0562,49.50888],[7.05552,49.51024],[7.05348,49.51258],[7.05509,49.51263],[7.05505,49.51366],[7.05322,49.51408],[7.0499,49.51522],[7.05138,49.51657],[7.04935,49.51811],[7.04862,49.51933],[7.0482,49.52038],[7.04804,49.52161],[7.04853,49.52369],[7.04865,49.52489],[7.04976,49.52529],[7.05636,49.52427],[7.05961,49.52451],[7.05973,49.52597],[7.06275,49.52896],[7.0644,49.53195],[7.06812,49.53381],[7.06948,49.53533],[7.07113,49.53576],[7.07261,49.53628],[7.07297,49.53652],[7.07386,49.53626],[7.07434,49.53497],[7.07697,49.53485],[7.07904,49.53446],[7.08098,49.5336],[7.08274,49.53457],[7.08561,49.53541],[7.08824,49.53805],[7.09045,49.53952],[7.08807,49.54406],[7.08614,49.5455],[7.0825,49.5474],[7.08326,49.54835],[7.08652,49.54931],[7.0894,49.54749],[7.09216,49.54917],[7.09193,49.5505],[7.09466,49.5506],[7.10044,49.55208],[7.1022,49.54972],[7.10624,49.54847],[7.10832,49.54919],[7.11238,49.54957],[7.11614,49.54962],[7.11972,49.55091],[7.1229,49.54963],[7.1229,49.54863],[7.12448,49.54851],[7.13471,49.54836],[7.13694,49.55071],[7.13996,49.55083],[7.14088,49.54996],[7.14117,49.54803],[7.14006,49.54709],[7.14082,49.54628],[7.14182,49.54372]]]},"properties":{"ags":"10046116","name":"Oberthal","kreis":"St. Wendel","pop":6008,"area":23.85,"nb":["10046112","10046113","10046114","10046117","10046118"],"t_wd_pm_pharmacy":17,"t_wd_pm_secondary_school":75,"t_wd_am_gp":17,"t_wd_am_primary_school":15,"t_wd_am_rail_station":42,"t_wd_am_supermarket":18,"t_wd_am_hospital":58,"t_wd_am_pharmacy":17,"t_wd_am_secondary_school":39,"t_wd_pm_supermarket":18,"t_wd_pm_gp":17,"t_su_am_pharmacy":17,"t_su_am_secondary_school":74,"t_su_am_supermarket":18,"t_su_am_gp":17,"t_su_am_primary_school":15,"t_su_am_rail_station":65,"t_wd_pm_primary_school":15,"t_wd_pm_rail_station":68,"t_wd_pm_hospital":null,"t_su_am_hospital":null,"s30_wd_pm_pharmacy":0.846,"s30_wd_pm_secondary_school":0,"s30_wd_am_gp":0.997,"s30_wd_am_primary_school":0.978,"s30_wd_am_rail_station":0.095,"s30_wd_am_supermarket":0.997,"s30_wd_am_hospital":0,"s30_wd_am_pharmacy":0.997,"s30_wd_am_secondary_school":0.095,"s30_wd_pm_supermarket":0.871,"s30_wd_pm_gp":0.858,"s30_su_am_pharmacy":0.846,"s30_su_am_secondary_school":0,"s30_su_am_supermarket":0.871,"s30_su_am_gp":0.858,"s30_su_am_primary_school":0.66,"s30_su_am_rail_station":0.045,"s30_wd_pm_primary_school":0.66,"s30_wd_pm_rail_station":0,"s30_wd_pm_hospital":0,"s30_su_am_hospital":0,"s60_wd_pm_pharmacy":0.846,"s60_wd_pm_secondary_school":0,"s60_wd_am_gp":0.997,"s60_wd_am_primary_school":0.997,"s60_wd_am_rail_station":0.997,"s60_wd_am_supermarket":0.997,"s60_wd_am_hospital":0.817,"s60_wd_am_pharmacy":0.997,"s60_wd_am_secondary_school":0.997,"s60_wd_pm_supermarket":0.871,"s60_wd_pm_gp":0.858,"s60_su_am_pharmacy":0.871,"s60_su_am_secondary_school":0.3,"s60_su_am_supermarket":0.871,"s60_su_am_gp":0.883,"s60_su_am_primary_school":0.678,"s60_su_am_rail_station":0.3,"s60_wd_pm_primary_school":0.678,"s60_wd_pm_rail_station":0,"s60_wd_pm_hospital":0,"s60_su_am_hospital":0,"r_wd_pm_pharmacy":4.25,"r_wd_pm_secondary_school":6.25,"r_wd_am_gp":3.4,"r_wd_am_primary_school":4,"r_wd_am_rail_station":4.75,"r_wd_am_supermarket":3.6,"r_wd_am_hospital":2.571,"r_wd_am_pharmacy":4.25,"r_wd_am_secondary_school":3.25,"r_wd_pm_supermarket":3.6,"r_wd_pm_gp":3.4,"r_su_am_pharmacy":4.25,"r_su_am_secondary_school":5.286,"r_su_am_supermarket":3.6,"r_su_am_gp":3.4,"r_su_am_primary_school":4,"r_su_am_rail_station":6.5,"r_wd_pm_primary_school":4,"r_wd_pm_rail_station":8.5,"r_wd_pm_hospital":null,"r_su_am_hospital":null,"c_gp":3,"c_hospital":22,"c_pharmacy":3,"c_primary_school":5,"c_rail_station":8,"c_secondary_school":12,"c_supermarket":4,"p30_wd_pm":4013,"p45_wd_pm":5291,"p60_wd_pm":8928,"p30_wd_am":6830,"p45_wd_am":18992,"p60_wd_am":43287,"p30_su_am":5615,"p45_su_am":8759,"p60_su_am":14314,"pc30":153267,"pc45":180549,"pc60":184310}},{"type":"Feature","geometry":{"type":"Polygon","coordinates":[[[7.20548,49.50767],[7.20521,49.50569],[7.20453,49.50256],[7.20491,49.5015],[7.2061,49.50198],[7.2085,49.50271],[7.21078,49.50284],[7.21727,49.50719],[7.21853,49.51098],[7.22049,49.51029],[7.2238,49.50893],[7.22499,49.50871],[7.22617,49.50831],[7.22871,49.50797],[7.22941,49.50778],[7.22955,49.50722],[7.23023,49.50669],[7.23077,49.50687],[7.2316,49.50658],[7.23175,49.50588],[7.23464,49.50604],[7.23591,49.50578],[7.23935,49.50424],[7.24347,49.5044],[7.2556,49.49943],[7.26154,49.49955],[7.26444,49.50039],[7.26671,49.50012],[7.26728,49.50053],[7.26679,49.50179],[7.26723,49.50272],[7.26859,49.5041],[7.2696,49.50472],[7.27165,49.50527],[7.27256,49.50525],[7.27419,49.50577],[7.2754,49.50578],[7.27716,49.50528],[7.27922,49.50516],[7.28049,49.50574],[7.28094,49.50552],[7.28209,49.50515],[7.28543,49.50465],[7.28457,49.50435],[7.28387,49.50384],[7.28299,49.50276],[7.28274,49.50195],[7.28289,49.50156],[7.28328,49.50166],[7.28436,49.50152],[7.28647,49.5009],[7.28684,49.50018],[7.28707,49.49906],[7.28476,49.49804],[7.28343,49.49633],[7.28307,49.49546],[7.28278,49.49229],[7.28149,49.48846],[7.27977,49.48711],[7.28192,49.48603],[7.27916,49.48465],[7.27814,49.48427],[7.2795,49.48375],[7.28274,49.48369],[7.28515,49.48321],[7.28889,49.48329],[7.29093,49.48306],[7.29275,49.48211],[7.29466,49.48301],[7.29684,49.48355],[7.29977,49.4788],[7.3012,49.47673],[7.304,49.47556],[7.30492,49.4742],[7.30483,49.47245],[7.30295,49.47137],[7.30141,49.47007],[7.3006,49.46895],[7.30057,49.46813],[7.30109,49.46669],[7.29936,49.46595],[7.29756,49.46465],[7.28982,49.46228],[7.28971,49.46136],[7.28627,49.46008],[7.28693,49.45769],[7.28165,49.4569],[7.27749,49.45611],[7.27481,49.45566],[7.27327,49.45433],[7.27347,49.45182],[7.27033,49.45125],[7.26825,49.45162],[7.26652,49.45149],[7.26052,49.44943],[7.25811,49.44877],[7.2527,49.44805],[7.24644,49.44552],[7.24777,49.44395],[7.24981,49.44295],[7.25273,49.44193],[7.25362,49.44055],[7.25533,49.4406],[7.25241,49.43702],[7.25383,49.43614],[7.25025,49.43518],[7.25259,49.43147],[7.25046,49.43077],[7.24833,49.43105],[7.24549,49.42976],[7.24364,49.43022],[7.24239,49.42928],[7.24096,49.42875],[7.23918,49.42917],[7.23504,49.4273],[7.23471,49.42794],[7.23363,49.42843],[7.23217,49.42832],[7.23194,49.42913],[7.2315,49.42966],[7.22767,49.42993],[7.22686,49.42901],[7.22411,49.43091],[7.21725,49.43696],[7.21349,49.43943],[7.20976,49.44111],[7.20812,49.44127],[7.20588,49.43766],[7.20675,49.43727],[7.20682,49.43461],[7.20513,49.43402],[7.19791,49.43319],[7.19427,49.43141],[7.19255,49.43035],[7.19333,49.42874],[7.19258,49.42709],[7.18294,49.426],[7.17932,49.4251],[7.1701,49.4233],[7.16281,49.41907],[7.15662,49.41856],[7.14899,49.41614],[7.14715,49.41614],[7.13939,49.41791],[7.13381,49.42037],[7.13297,49.42394],[7.13256,49.42534],[7.1303,49.42636],[7.12974,49.42707],[7.1296,49.42785],[7.1306,49.42948],[7.12883,49.42982],[7.12805,49.42791],[7.12427,49.42684],[7.12287,49.42937],[7.1205,49.42975],[7.11875,49.42903],[7.11487,49.42708],[7.11342,49.4277],[7.11014,49.42761],[7.10739,49.42832],[7.10584,49.42668],[7.10326,49.4243],[7.10511,49.42385],[7.10781,49.42393],[7.10694,49.42243],[7.10323,49.42191],[7.104,49.42081],[7.10118,49.42001],[7.10062,49.42245],[7.10033,49.42494],[7.10028,49.42759],[7.10065,49.42979],[7.1003,49.43246],[7.10254,49.43271],[7.10199,49.4347],[7.10001,49.43664],[7.0977,49.4371],[7.0962,49.43801],[7.09435,49.44146],[7.09402,49.44525],[7.09352,49.44744],[7.09427,49.4517],[7.0951,49.45215],[7.09684,49.45174],[7.09681,49.45336],[7.09833,49.45351],[7.10304,49.45629],[7.11014,49.45638],[7.11012,49.45841],[7.11196,49.45858],[7.10984,49.45995],[7.10556,49.45907],[7.10455,49.46111],[7.09798,49.46102],[7.09699,49.46192],[7.09303,49.46002],[7.09151,49.46077],[7.08894,49.46399],[7.0873,49.46741],[7.08771,49.4711],[7.0864,49.4711],[7.08665,49.47564],[7.08647,49.47883],[7.089,49.48074],[7.08624,49.48225],[7.08299,49.48649],[7.0803,49.48929],[7.07777,49.49136],[7.07493,49.49241],[7.07171,49.49316],[7.06871,49.4948],[7.06772,49.49683],[7.06822,49.49784],[7.07133,49.49786],[7.07608,49.49885],[7.08221,49.50148],[7.08413,49.501],[7.08872,49.50168],[7.09183,49.50173],[7.09465,49.50219],[7.09972,49.5044],[7.10424,49.50517],[7.10589,49.50518],[7.10843,49.5044],[7.11076,49.50463],[7.11544,49.5057],[7.11537,49.50668],[7.11824,49.50708],[7.12015,49.50787],[7.12247,49.5091],[7.12464,49.51086],[7.1295,49.51167],[7.12886,49.50964],[7.13137,49.50693],[7.13926,49.50613],[7.14263,49.5073],[7.14235,49.50399],[7.14355,49.50314],[7.1441,49.50185],[7.14587,49.49968],[7.14871,49.49834],[7.14755,49.49516],[7.14965,49.49312],[7.15076,49.48603],[7.15359,49.48531],[7.15537,49.48692],[7.15779,49.48641],[7.16069,49.48671],[7.16174,49.4879],[7.16293,49.48702],[7.16508,49.48775],[7.1659,49.48829],[7.16498,49.4886],[7.16479,49.48917],[7.1652,49.48968],[7.16515,49.49094],[7.16781,49.49177],[7.16962,49.4926],[7.17489,49.49412],[7.17586,49.49398],[7.17956,49.49888],[7.18275,49.50049],[7.18315,49.49926],[7.18641,49.49989],[7.19492,49.50045],[7.19779,49.50226],[7.19941,49.50428],[7.20105,49.50465],[7.20277,49.50659],[7.20548,49.50767]]]},"properties":{"ags":"10046117","name":"St. Wendel","kreis":"St. Wendel","pop":25448,"area":113.48,"nb":["10046111","10046112","10046113","10046116"],"t_wd_pm_pharmacy":12,"t_wd_pm_secondary_school":28,"t_wd_am_gp":17,"t_wd_am_primary_school":15,"t_wd_am_rail_station":16,"t_wd_am_supermarket":14,"t_wd_am_hospital":49,"t_wd_am_pharmacy":12,"t_wd_am_secondary_school":31,"t_wd_pm_supermarket":13,"t_wd_pm_gp":17,"t_su_am_pharmacy":12,"t_su_am_secondary_school":33,"t_su_am_supermarket":14,"t_su_am_gp":17,"t_su_am_primary_school":15,"t_su_am_rail_station":17,"t_wd_pm_primary_school":15,"t_wd_pm_rail_station":16,"t_wd_pm_hospital":null,"t_su_am_hospital":null,"s30_wd_pm_pharmacy":0.841,"s30_wd_pm_secondary_school":0.533,"s30_wd_am_gp":0.782,"s30_wd_am_primary_school":0.782,"s30_wd_am_rail_station":0.586,"s30_wd_am_supermarket":0.927,"s30_wd_am_hospital":0.37,"s30_wd_am_pharmacy":0.864,"s30_wd_am_secondary_school":0.459,"s30_wd_pm_supermarket":0.776,"s30_wd_pm_gp":0.711,"s30_su_am_pharmacy":0.763,"s30_su_am_secondary_school":0.455,"s30_su_am_supermarket":0.776,"s30_su_am_gp":0.593,"s30_su_am_primary_school":0.706,"s30_su_am_rail_station":0.698,"s30_wd_pm_primary_school":0.738,"s30_wd_pm_rail_station":0.66,"s30_wd_pm_hospital":0.203,"s30_su_am_hospital":0.203,"s60_wd_pm_pharmacy":0.968,"s60_wd_pm_secondary_school":0.758,"s60_wd_am_gp":1.0,"s60_wd_am_primary_school":1.0,"s60_wd_am_rail_station":0.878,"s60_wd_am_supermarket":1.0,"s60_wd_am_hospital":0.806,"s60_wd_am_pharmacy":1.0,"s60_wd_am_secondary_school":0.999,"s60_wd_pm_supermarket":0.968,"s60_wd_pm_gp":0.893,"s60_su_am_pharmacy":0.85,"s60_su_am_secondary_school":0.781,"s60_su_am_supermarket":0.856,"s60_su_am_gp":0.803,"s60_su_am_primary_school":0.864,"s60_su_am_rail_station":0.78,"s60_wd_pm_primary_school":0.974,"s60_wd_pm_rail_station":0.663,"s60_wd_pm_hospital":0.401,"s60_su_am_hospital":0.203,"r_wd_pm_pharmacy":4,"r_wd_pm_secondary_school":4.667,"r_wd_am_gp":4.25,"r_wd_am_primary_school":3.75,"r_wd_am_rail_station":3.25,"r_wd_am_supermarket":4.6,"r_wd_am_hospital":2.722,"r_wd_am_pharmacy":4,"r_wd_am_secondary_school":4.111,"r_wd_pm_supermarket":5,"r_wd_pm_gp":4.571,"r_su_am_pharmacy":4,"r_su_am_secondary_school":4.625,"r_su_am_supermarket":5,"r_su_am_gp":5.4,"r_su_am_primary_school":4,"r_su_am_rail_station":3.571,"r_wd_pm_primary_school":3.833,"r_wd_pm_rail_station":3.75,"r_wd_pm_hospital":null,"r_su_am_hospital":null,"c_gp":3,"c_hospital":15,"c_pharmacy":3,"c_primary_school":4,"c_rail_station":6,"c_secondary_school":6,"c_supermarket":3,"p30_wd_pm":7797,"p45_wd_pm":22139,"p60_wd_pm":40375,"p30_wd_am":10131,"p45_wd_am":28821,"p60_wd_am":51205,"p30_su_am":6736,"p45_su_am":15553,"p60_su_am":25089,"pc30":137065,"pc45":174816,"pc60":182853}},{"type":"Feature","geometry":{"type":"Polygon","coordinates":[[[7.04853,49.52369],[7.04804,49.52161],[7.0482,49.52038],[7.04862,49.51933],[7.04935,49.51811],[7.05138,49.51657],[7.0499,49.51522],[7.05322,49.51408],[7.05505,49.51366],[7.05509,49.51263],[7.05348,49.51258],[7.05552,49.51024],[7.0562,49.50888],[7.05475,49.50774],[7.05322,49.50761],[7.05419,49.50478],[7.05843,49.50314],[7.0599,49.50302],[7.05868,49.50138],[7.05647,49.50014],[7.05701,49.49846],[7.0601,49.49805],[7.05812,49.49597],[7.06034,49.49425],[7.06278,49.49259],[7.062,49.49048],[7.05967,49.49103],[7.05686,49.49119],[7.05505,49.49057],[7.0537,49.48937],[7.0573,49.48753],[7.0539,49.48504],[7.05181,49.48471],[7.05057,49.48333],[7.04988,49.48099],[7.05096,49.48078],[7.05067,49.4798],[7.04875,49.47846],[7.04605,49.47454],[7.04754,49.47248],[7.04247,49.47147],[7.04473,49.46888],[7.04602,49.46587],[7.04311,49.46663],[7.03709,49.46418],[7.03651,49.46249],[7.03428,49.46255],[7.03212,49.46173],[7.0292,49.45906],[7.02828,49.45715],[7.02614,49.45587],[7.02444,49.45415],[7.02471,49.45142],[7.02638,49.45004],[7.02132,49.44891],[7.01223,49.44922],[7.00836,49.44841],[7.00456,49.44392],[7.00194,49.44448],[6.99729,49.43843],[6.99435,49.43779],[6.98932,49.43676],[6.98925,49.43898],[6.98735,49.44038],[6.98751,49.44217],[6.98673,49.44534],[6.98637,49.44823],[6.98538,49.44898],[6.98324,49.45035],[6.98138,49.45142],[6.97942,49.45141],[6.9781,49.45106],[6.97618,49.45076],[6.97523,49.4509],[6.97556,49.45134],[6.97718,49.45268],[6.9787,49.45344],[6.97687,49.45462],[6.97507,49.45622],[6.97377,49.45849],[6.97193,49.46082],[6.97161,49.46157],[6.97247,49.4627],[6.97415,49.46428],[6.97398,49.46536],[6.97372,49.466],[6.97527,49.46766],[6.97752,49.46888],[6.97656,49.46999],[6.9739,49.46957],[6.97118,49.46923],[6.97019,49.47035],[6.97025,49.47344],[6.97273,49.47548],[6.97129,49.47612],[6.9688,49.47865],[6.96812,49.48018],[6.97151,49.48225],[6.97042,49.48431],[6.96956,49.48567],[6.96882,49.48631],[6.96604,49.48648],[6.96327,49.48784],[6.96175,49.48736],[6.96046,49.4861],[6.95602,49.4851],[6.95285,49.48223],[6.94366,49.47436],[6.94081,49.47253],[6.9371,49.47251],[6.93587,49.47147],[6.93405,49.47264],[6.93243,49.47259],[6.92922,49.47106],[6.92506,49.46875],[6.92352,49.4693],[6.92241,49.47244],[6.91929,49.47408],[6.91836,49.4747],[6.91657,49.47547],[6.91551,49.47653],[6.91495,49.47806],[6.91245,49.47872],[6.91206,49.4801],[6.9108,49.48075],[6.91358,49.48256],[6.91497,49.48333],[6.91684,49.48351],[6.91928,49.48365],[6.92011,49.48382],[6.92052,49.48426],[6.92062,49.48491],[6.92129,49.48674],[6.92459,49.48785],[6.92534,49.4882],[6.92621,49.48836],[6.9263,49.48959],[6.92441,49.49129],[6.91891,49.49257],[6.91828,49.49345],[6.9172,49.49701],[6.91649,49.49811],[6.91018,49.5017],[6.91645,49.50596],[6.91814,49.50774],[6.91926,49.50786],[6.92067,49.50635],[6.92147,49.505],[6.92307,49.50381],[6.92523,49.50485],[6.92608,49.5047],[6.92866,49.50357],[6.92886,49.50477],[6.9304,49.50602],[6.93142,49.5053],[6.93586,49.50652],[6.93583,49.5077],[6.93808,49.50815],[6.93847,49.50737],[6.94015,49.50853],[6.94227,49.50952],[6.94688,49.5112],[6.9552,49.51167],[6.95545,49.51184],[6.95688,49.51097],[6.95976,49.51071],[6.96133,49.50933],[6.96261,49.51027],[6.96757,49.51143],[6.96912,49.51247],[6.97171,49.51046],[6.97393,49.51006],[6.97702,49.51031],[6.97763,49.5118],[6.97962,49.51135],[6.98283,49.51184],[6.98482,49.51335],[6.98576,49.51281],[6.98752,49.51294],[6.98832,49.51427],[6.99037,49.5153],[6.99265,49.51514],[6.9934,49.51759],[6.99676,49.51929],[6.9997,49.51921],[7.00204,49.52074],[7.00692,49.52115],[7.01001,49.52217],[7.01445,49.52414],[7.01562,49.52553],[7.01707,49.52409],[7.02182,49.52535],[7.02338,49.52461],[7.02598,49.52662],[7.0259,49.52471],[7.02695,49.52429],[7.02817,49.52459],[7.02847,49.52353],[7.03118,49.5226],[7.03494,49.52201],[7.03601,49.52384],[7.03822,49.52364],[7.04093,49.52372],[7.0455,49.52302],[7.04588,49.52385],[7.04853,49.52369]]]},"properties":{"ags":"10046118","name":"Tholey","kreis":"St. Wendel","pop":12227,"area":57.58,"nb":["10046112","10046114","10046115","10046116"],"t_wd_pm_pharmacy":10,"t_wd_pm_secondary_school":42,"t_wd_am_gp":29,"t_wd_am_primary_school":25,"t_wd_am_rail_station":51,"t_wd_am_supermarket":13,"t_wd_am_hospital":91,"t_wd_am_pharmacy":10,"t_wd_am_secondary_school":33,"t_wd_pm_supermarket":13,"t_wd_pm_gp":47,"t_su_am_pharmacy":10,"t_su_am_secondary_school":49,"t_su_am_supermarket":13,"t_su_am_gp":44,"t_su_am_primary_school":31,"t_su_am_rail_station":71,"t_wd_pm_primary_school":45,"t_wd_pm_rail_station":81,"t_wd_pm_hospital":null,"t_su_am_hospital":null,"s30_wd_pm_pharmacy":0.749,"s30_wd_pm_secondary_school":0.266,"s30_wd_am_gp":0.519,"s30_wd_am_primary_school":0.787,"s30_wd_am_rail_station":0,"s30_wd_am_supermarket":0.994,"s30_wd_am_hospital":0,"s30_wd_am_pharmacy":0.994,"s30_wd_am_secondary_school":0.415,"s30_wd_pm_supermarket":0.771,"s30_wd_pm_gp":0.214,"s30_su_am_pharmacy":0.665,"s30_su_am_secondary_school":0.266,"s30_su_am_supermarket":0.692,"s30_su_am_gp":0.229,"s30_su_am_primary_school":0.481,"s30_su_am_rail_station":0,"s30_wd_pm_primary_school":0.481,"s30_wd_pm_rail_station":0,"s30_wd_pm_hospital":0,"s30_su_am_hospital":0,"s60_wd_pm_pharmacy":0.849,"s60_wd_pm_secondary_school":0.821,"s60_wd_am_gp":1,"s60_wd_am_primary_school":1,"s60_wd_am_rail_station":0.73,"s60_wd_am_supermarket":1,"s60_wd_am_hospital":0,"s60_wd_am_pharmacy":1,"s60_wd_am_secondary_school":1,"s60_wd_pm_supermarket":0.849,"s60_wd_pm_gp":0.821,"s60_su_am_pharmacy":0.821,"s60_su_am_secondary_school":0.821,"s60_su_am_supermarket":0.849,"s60_su_am_gp":0.82,"s60_su_am_primary_school":0.821,"s60_su_am_rail_station":0.197,"s60_wd_pm_primary_school":0.849,"s60_wd_pm_rail_station":0.354,"s60_wd_pm_hospital":0,"s60_su_am_hospital":0,"r_wd_pm_pharmacy":4,"r_wd_pm_secondary_school":4.2,"r_wd_am_gp":3.778,"r_wd_am_primary_school":3.5,"r_wd_am_rail_station":4.063,"r_wd_am_supermarket":3.5,"r_wd_am_hospital":3.033,"r_wd_am_pharmacy":3.375,"r_wd_am_secondary_school":2.75,"r_wd_pm_supermarket":3.5,"r_wd_pm_gp":5.222,"r_su_am_pharmacy":4,"r_su_am_secondary_school":4.455,"r_su_am_supermarket":3.5,"r_su_am_gp":4.889,"r_su_am_primary_school":4.429,"r_su_am_rail_station":4.733,"r_wd_pm_primary_school":5,"r_wd_pm_rail_station":5.4,"r_wd_pm_hospital":null,"r_su_am_hospital":null,"c_gp":9,"c_hospital":32,"c_pharmacy":3,"c_primary_school":6,"c_rail_station":15,"c_secondary_school":10,"c_supermarket":4,"p30_wd_pm":3294,"p45_wd_pm":6083,"p60_wd_pm":12347,"p30_wd_am":4671,"p45_wd_am":16154,"p60_wd_am":30379,"p30_su_am":2730,"p45_su_am":5299,"p60_su_am":12508,"pc30":138163,"pc45":176081,"pc60":183480}}]}
